{"fetched_at":"2026-03-29T16:36:15Z","count":15609,"tles":[{"name":"STARLINK-4197","line1":"1 52849U 22062V   26087.85024954  .00000123  00000+0  25813-4 0  9998","line2":"2 52849  53.2192 298.1032 0001710 107.3718 252.7461 15.08839054208812","category":"Starlink"}]}