{
  "norad_id": 52849,
  "name": "STARLINK-4197",
  "history": [
    {
      "epoch": "2026-03-28T20:24:21.560256",
      "apogee_km": 540.9293077289612,
      "perigee_km": 538.5632532893615,
      "latitude_deg": -41.350781900095036,
      "longitude_deg": -93.47604416008107,
      "semi_major_axis_km": 6917.883280509161,
      "eccentricity": 0.00017101,
      "inclination_deg": 53.2192,
      "raan_deg": 298.1032,
      "arg_perigee_deg": 107.3718,
      "mean_anomaly_deg": 252.7461,
      "mean_motion_rev_day": 15.08839054
    }
  ]
}